SAUDISAT 1C (SO-50)     
1 27607U 02058C   26185.41777487  .00001077  00000+0  14408-3 0  9998
2 27607  64.5521  75.6740 0074819 259.2514 100.0163 14.83083246267019
SAUDISAT 2              
1 28371U 04025F   26185.26991954  .00000307  00000+0  79546-4 0  9993
2 28371  98.5512 185.6936 0023556 243.0600 116.8191 14.56693820168238
SAUDISAT 3              
1 31118U 07012B   26185.59920230  .00000426  00000+0  76888-4 0  9998
2 31118  98.1462 136.0119 0014872 166.9259 193.2336 14.71436545 30300
PISAT                   
1 41784U 16059B   26185.44522839  .00001202  00000+0  21170-3 0  9992
2 41784  97.8184 185.1567 0029785 147.8327 212.4704 14.69015535522276
FLYING LAPTOP           
1 42831U 17042G   26185.64919469  .00002857  00000+0  22589-3 0  9992
2 42831  97.4771 340.5188 0019928  66.0616 294.2694 15.01257840489075
SALSAT                  
1 46495U 20068K   26185.47776598  .00013616  00000+0  47010-3 0  9990
2 46495  97.8855 189.5980 0008208 234.4468 125.6006 15.30057656318001
